     2.100          NAVIGATION                              RINEX VERSION / TYPE
fic2rin                                 06/17/2017 00:54:58 PGM / RUN BY / DATE
                                                            END OF HEADER
11 17  6 16 14  0  0.0 -.695725902915D-03 -.272848410532D-11  .000000000000D+00
     .170000000000D+02 -.439062500000D+02  .584560063559D-08 -.271257258414D+01
    -.211969017982D-05  .168447913602D-01  .317953526974D-05  .515371558380D+04
     .482400000000D+06  .145286321640D-06  .311050171501D+01  .670552253723D-07
     .901419415257D+00  .284156250000D+03  .165056067696D+01 -.863178812005D-08
    -.264296723305D-10  .100000000000D+01  .195300000000D+04  .000000000000D+00
     .240000000000D+01  .000000000000D+00 -.121071934700D-07  .170000000000D+02
     .475206000000D+06  .400000000000D+01
12 17  6 16 14  0  0.0  .381245277822D-03 -.909494701773D-12  .000000000000D+00
     .150000000000D+02  .237187500000D+02  .381730186309D-08  .294534664784D+01
     .112131237984D-05  .665491353720D-02  .876188278198D-05  .515377417946D+04
     .482400000000D+06 -.577419996262D-07  .147255660427D+01 -.134110450745D-06
     .988962027701D+00  .220968750000D+03  .893217667450D+00 -.763138930657D-08
    -.141791620476D-09  .100000000000D+01  .195300000000D+04  .000000000000D+00
     .240000000000D+01  .000000000000D+00 -.125728547573D-07  .150000000000D+02
     .475206000000D+06  .400000000000D+01
13 17  6 16 14  0  0.0 -.853687524796D-04 -.909494701773D-12  .000000000000D+00
     .410000000000D+02  .366250000000D+02  .452268838813D-08 -.165459229924D+01
     .205263495445D-05  .364598713350D-02  .735558569431D-05  .515368721008D+04
     .482400000000D+06 -.502914190292D-07 -.563925507590D+00  .577419996262D-07
     .969522413849D+00  .243750000000D+03  .183276841402D+01 -.801283376669D-08
     .223580741607D-09  .100000000000D+01  .195300000000D+04  .000000000000D+00
     .240000000000D+01  .000000000000D+00 -.111758708954D-07  .410000000000D+02
     .475206000000D+06  .400000000000D+01
14 17  6 16 14  0  0.0 -.745519064367D-04 -.136424205266D-11  .000000000000D+00
     .210000000000D+02  .408750000000D+02  .480412868267D-08 -.278048118872D+00
     .214204192162D-05  .921919173561D-02  .698119401932D-05  .515365649223D+04
     .482400000000D+06 -.558793544769D-07 -.603502626215D+00  .147148966789D-06
     .962014896742D+00  .250500000000D+03 -.195929991451D+01 -.829641700764D-08
     .269654089318D-09  .100000000000D+01  .195300000000D+04  .000000000000D+00
     .240000000000D+01  .000000000000D+00 -.931322574615D-08  .210000000000D+02
     .475206000000D+06  .400000000000D+01
16 17  6 16 14  0  0.0  .349278561771D-04  .454747350886D-12  .000000000000D+00
     .250000000000D+02  .370625000000D+02  .390909140078D-08  .962381154375D+00
     .221841037273D-05  .933182053268D-02  .903941690922D-05  .515371543884D+04
     .482400000000D+06  .149011611938D-07  .149142521194D+01  .100582838058D-06
     .989429612892D+00  .219031250000D+03  .457394759756D+00 -.783961226560D-08
    -.225366530278D-09  .100000000000D+01  .195300000000D+04  .000000000000D+00
     .240000000000D+01  .000000000000D+00 -.107102096081D-07  .250000000000D+02
     .475206000000D+06  .400000000000D+01
17 17  6 16 14  0  0.0 -.174400396645D-03  .204636307899D-11  .000000000000D+00
     .180000000000D+02  .226562500000D+02  .428660712582D-08  .285659961055D-01
     .127032399178D-05  .116262102965D-01  .562332570553D-05  .515364375114D+04
     .482400000000D+06 -.126659870148D-06  .250917600452D+01  .689178705215D-07
     .980240165703D+00  .283437500000D+03 -.184781903226D+01 -.831427489435D-08
     .992898501065D-10  .100000000000D+01  .195300000000D+04  .000000000000D+00
     .240000000000D+01  .000000000000D+00 -.111758708954D-07  .180000000000D+02
     .475206000000D+06  .400000000000D+01
18 17  6 16 14  0  0.0  .620256643742D-03  .147792889038D-11  .000000000000D+00
     .480000000000D+02 -.376250000000D+02  .514271421469D-08  .147518234327D+01
    -.210106372833D-05  .181390484795D-01  .986456871033D-05  .515361568260D+04
     .482400000000D+06 -.262632966042D-06 -.177334170168D+01 -.393018126488D-06
     .925347991772D+00  .172875000000D+03 -.179950207968D+01 -.841392190219D-08
     .129291099779D-09  .100000000000D+01  .195300000000D+04  .000000000000D+00
     .240000000000D+01  .000000000000D+00 -.111758708954D-07  .480000000000D+02
     .475206000000D+06  .400000000000D+01
19 17  6 16 14  0  0.0 -.499487388879D-03  .147792889038D-11  .000000000000D+00
     .250000000000D+02  .167500000000D+02  .427232081645D-08  .308937697899D+01
     .819563865662D-06  .103023799602D-01  .496394932270D-05  .515367184639D+04
     .482400000000D+06  .372529029846D-07  .255697054320D+01 -.229105353355D-06
     .977545748556D+00  .288750000000D+03  .997462810593D+00 -.799211861811D-08
     .657170230921D-10  .100000000000D+01  .195300000000D+04  .000000000000D+00
     .240000000000D+01  .000000000000D+00 -.153668224812D-07  .250000000000D+02
     .475206000000D+06  .400000000000D+01
20 17  6 16 14  0  0.0  .476334709674D-03  .136424205266D-11  .000000000000D+00
     .180000000000D+02 -.361562500000D+02  .503985278724D-08 -.875827982185D+00
    -.175647437572D-05  .432738300879D-02  .976398587227D-05  .515369500160D+04
     .482400000000D+06 -.447034835815D-07 -.182466744664D+01  .745058059692D-07
     .926734274888D+00  .174906250000D+03  .161076748241D+01 -.832534678411D-08
     .175364447490D-09  .100000000000D+01  .195300000000D+04  .000000000000D+00
     .240000000000D+01  .000000000000D+00 -.838190317154D-08  .180000000000D+02
     .475206000000D+06  .400000000000D+01
21 17  6 16 14  0  0.0 -.500516500324D-03  .238742359215D-11  .000000000000D+00
     .500000000000D+01 -.715625000000D+02  .482877256633D-08  .239362688168D+01
    -.385753810406D-05  .239581979113D-01  .481121242046D-05  .515366633034D+04
     .482400000000D+06  .266358256340D-06 -.281362863755D+01 -.163912773132D-06
     .940226483064D+00  .269500000000D+03 -.166497815741D+01 -.796783189218D-08
    -.203937066226D-09  .100000000000D+01  .195300000000D+04  .000000000000D+00
     .240000000000D+01  .000000000000D+00 -.977888703346D-08  .500000000000D+01
     .475206000000D+06  .400000000000D+01
22 17  6 16 14  0  0.0 -.244607217610D-04 -.122781784739D-10  .000000000000D+00
     .210000000000D+02 -.275937500000D+02  .513342811360D-08 -.518411991746D+00
    -.138208270073D-05  .752377277240D-02  .107660889626D-04  .515380590820D+04
     .482400000000D+06 -.558793544769D-07 -.177351848509D+01  .163912773132D-06
     .923398060950D+00  .153812500000D+03 -.171865247691D+01 -.841285042899D-08
     .203937066226D-09  .100000000000D+01  .195300000000D+04  .000000000000D+00
     .240000000000D+01  .000000000000D+00 -.176951289177D-07  .210000000000D+02
     .475206000000D+06  .400000000000D+01
23 17  6 16 14  0  0.0 -.213645398617D-03 -.682121026330D-12  .000000000000D+00
     .380000000000D+02  .441250000000D+02  .509164065870D-08 -.130714723659D+01
     .232458114624D-05  .118080924731D-01  .674836337566D-05  .515372672844D+04
     .482400000000D+06  .296160578728D-06 -.688782872423D+00 -.335276126862D-07
     .944258909957D+00  .233437500000D+03 -.245213555148D+01 -.827748764773D-08
     .391802034413D-09  .100000000000D+01  .195300000000D+04  .000000000000D+00
     .240000000000D+01  .000000000000D+00 -.204890966415D-07  .380000000000D+02
     .475206000000D+06  .400000000000D+01
24 17  6 16 14  0  0.0 -.362703576684D-04 -.454747350886D-12  .000000000000D+00
     .690000000000D+02  .400000000000D+01  .517735851491D-08 -.189563409860D+01
     .614672899246D-07  .567562936340D-02  .610947608948D-05  .515368600845D+04
     .482400000000D+06  .106170773506D-06  .333991671545D+00 -.875443220139D-07
     .945472235194D+00  .253500000000D+03  .485394978146D+00 -.837713465557D-08
    -.122862260563D-09  .100000000000D+01  .195300000000D+04  .000000000000D+00
     .340000000000D+01  .000000000000D+00  .279396772385D-08  .690000000000D+02
     .475206000000D+06  .400000000000D+01
25 17  6 16 14  0  0.0 -.405784230679D-03 -.659383658785D-11  .000000000000D+00
     .850000000000D+02  .276875000000D+02  .404802575938D-08  .243885488419D+01
     .127963721752D-05  .651702121831D-02  .861659646034D-05  .515358315849D+04
     .482400000000D+06 -.689178705215D-07  .141700609672D+01 -.949949026108D-07
     .976885552644D+00  .221000000000D+03  .822343593340D+00 -.775032283206D-08
    -.122862260563D-09  .100000000000D+01  .195300000000D+04  .000000000000D+00
     .240000000000D+01  .000000000000D+00  .558793544769D-08  .850000000000D+02
     .475206000000D+06  .400000000000D+01
26 17  6 16 14  0  0.0 -.490021891892D-03  .591171556152D-11  .000000000000D+00
     .970000000000D+02  .343750000000D+02  .463483591666D-08  .180622012281D+01
     .196136534214D-05  .181508949026D-02  .868178904057D-05  .515372034073D+04
     .482400000000D+06  .633299350739D-07  .140122784059D+01  .987201929092D-07
     .958652528754D+00  .211937500000D+03  .981425086923D-01 -.811212361680D-08
    -.141791620476D-09  .100000000000D+01  .195300000000D+04  .000000000000D+00
     .340000000000D+01  .000000000000D+00  .745058059692D-08  .970000000000D+02
     .475206000000D+06  .400000000000D+01
27 17  6 16 14  0  0.0  .276840291917D-03  .693489710102D-11  .000000000000D+00
     .870000000000D+02  .270312500000D+02  .438625413366D-08  .683779408786D-01
     .134855508804D-05  .487476191483D-02  .483170151711D-05  .515366446877D+04
     .482400000000D+06  .856816768646D-07  .245707955774D+01  .204890966415D-07
     .975098918590D+00  .289937500000D+03  .371131464784D+00 -.824212903204D-08
     .653598653579D-10  .100000000000D+01  .195300000000D+04  .000000000000D+00
     .240000000000D+01  .000000000000D+00  .139698386192D-08  .870000000000D+02
     .475206000000D+06  .400000000000D+01
